start=new Date('2022-04-23T00:00:00.000Z').valueOf();
sats=[{"OBJECT_TYPE":"PAYLOAD","SITE":"AFETR","EPHEMERIS_TYPE":"0","ARG_OF_PERICENTER":"60.9466","LAUNCH_DATE":"2021-05-15","COUNTRY_CODE":"US","MEAN_MOTION_DDOT":"0.0000000000000","EPOCH":"2022-04-22T16:52:32.007072","ECCENTRICITY":"0.00017490","TIME_SYSTEM":"UTC","SEMIMAJOR_AXIS":"6925.318","MEAN_ANOMALY":"299.1698","REV_AT_EPOCH":"5207","ELEMENT_SET_NO":"999","DECAY_DATE":null,"CENTER_NAME":"EARTH","OBJECT_ID":"2021-041G","MEAN_ELEMENT_THEORY":"SGP4","RA_OF_ASC_NODE":"12.7106","APOAPSIS":"548.394","MEAN_MOTION":"15.06410005","OBJECT_NAME":"STARLINK-2167","PERIOD":"95.592","TLE_LINE1":"1 48559U 21041G   22112.70314823  .00005034  00000-0  35650-3 0  9999","INCLINATION":"53.0556","RCS_SIZE":"LARGE","PERIAPSIS":"545.972","MEAN_MOTION_DOT":"0.00005034","BSTAR":"0.00035650000000","CLASSIFICATION_TYPE":"U","TLE_LINE2":"2 48559  53.0556  12.7106 0001749  60.9466 299.1698 15.06410005 52076","NORAD_CAT_ID":"48559","GP_ID":"201831978","FILE":"3411660","REF_FRAME":"TEME"},{"MEAN_ELEMENT_THEORY":"SGP4","RA_OF_ASC_NODE":"343.2587","APOAPSIS":"548.191","MEAN_MOTION":"15.06415711","OBJECT_NAME":"STARLINK-2186","OBJECT_ID":"2021-041J","INCLINATION":"53.0533","RCS_SIZE":"LARGE","PERIOD":"95.591","TLE_LINE1":"1 48561U 21041J   22112.58334491 -.00016502  00000-0 -10910-2 0  9996","BSTAR":"-0.00109100000000","PERIAPSIS":"546.140","MEAN_MOTION_DOT":"-0.00016502","NORAD_CAT_ID":"48561","TLE_LINE2":"2 48561  53.0533 343.2587 0001481  95.8405  39.1945 15.06415711 52438","GP_ID":"201797946","FILE":"3411265","REF_FRAME":"TEME","CLASSIFICATION_TYPE":"U","SITE":"AFETR","EPHEMERIS_TYPE":"0","OBJECT_TYPE":"PAYLOAD","ARG_OF_PERICENTER":"95.8405","LAUNCH_DATE":"2021-05-15","COUNTRY_CODE":"US","MEAN_MOTION_DDOT":"0.0000000000000","ECCENTRICITY":"0.00014810","EPOCH":"2022-04-22T14:00:01.000224","ELEMENT_SET_NO":"999","DECAY_DATE":null,"CENTER_NAME":"EARTH","SEMIMAJOR_AXIS":"6925.300","TIME_SYSTEM":"UTC","MEAN_ANOMALY":"39.1945","REV_AT_EPOCH":"5243"},{"ARG_OF_PERICENTER":"88.9030","SITE":"AFETR","OBJECT_TYPE":"PAYLOAD","EPHEMERIS_TYPE":"0","COUNTRY_CODE":"US","MEAN_MOTION_DDOT":"0.0000000000000","LAUNCH_DATE":"2021-05-15","EPOCH":"2022-04-22T10:42:20.968128","ECCENTRICITY":"0.00015090","TIME_SYSTEM":"UTC","SEMIMAJOR_AXIS":"6925.364","REV_AT_EPOCH":"5159","MEAN_ANOMALY":"271.2131","ELEMENT_SET_NO":"999","CENTER_NAME":"EARTH","DECAY_DATE":null,"OBJECT_ID":"2021-041K","RA_OF_ASC_NODE":"13.8758","MEAN_ELEMENT_THEORY":"SGP4","OBJECT_NAME":"STARLINK-2187","APOAPSIS":"548.274","MEAN_MOTION":"15.06394838","PERIOD":"95.592","TLE_LINE1":"1 48562U 21041K   22112.44607602  .00005152  00000-0  36458-3 0  9992","RCS_SIZE":"LARGE","INCLINATION":"53.0561","PERIAPSIS":"546.184","MEAN_MOTION_DOT":"0.00005152","BSTAR":"0.00036458000000","CLASSIFICATION_TYPE":"U","FILE":"3411458","GP_ID":"201824911","TLE_LINE2":"2 48562  53.0561  13.8758 0001509  88.9030 271.2131 15.06394838 51596","NORAD_CAT_ID":"48562","REF_FRAME":"TEME"},{"OBJECT_ID":"2021-041L","RA_OF_ASC_NODE":"12.3121","MEAN_ELEMENT_THEORY":"SGP4","OBJECT_NAME":"STARLINK-2188","MEAN_MOTION":"15.06412131","APOAPSIS":"548.068","PERIOD":"95.591","TLE_LINE1":"1 48563U 21041L   22112.79624076  .00003897  00000-0  28030-3 0  9996","RCS_SIZE":"LARGE","INCLINATION":"53.0536","PERIAPSIS":"546.285","MEAN_MOTION_DOT":"0.00003897","BSTAR":"0.00028030000000","CLASSIFICATION_TYPE":"U","FILE":"3411669","TLE_LINE2":"2 48563  53.0536  12.3121 0001287  76.4674 283.6459 15.06412131 52099","NORAD_CAT_ID":"48563","GP_ID":"201832776","REF_FRAME":"TEME","ARG_OF_PERICENTER":"76.4674","SITE":"AFETR","OBJECT_TYPE":"PAYLOAD","EPHEMERIS_TYPE":"0","COUNTRY_CODE":"US","MEAN_MOTION_DDOT":"0.0000000000000","LAUNCH_DATE":"2021-05-15","EPOCH":"2022-04-22T19:06:35.201664","ECCENTRICITY":"0.00012870","TIME_SYSTEM":"UTC","SEMIMAJOR_AXIS":"6925.311","REV_AT_EPOCH":"5209","MEAN_ANOMALY":"283.6459","ELEMENT_SET_NO":"999","CENTER_NAME":"EARTH","DECAY_DATE":null},{"LAUNCH_DATE":"2021-05-15","MEAN_MOTION_DDOT":"0.0000000000000","COUNTRY_CODE":"US","OBJECT_TYPE":"PAYLOAD","SITE":"AFETR","EPHEMERIS_TYPE":"0","ARG_OF_PERICENTER":"67.9761","DECAY_DATE":null,"CENTER_NAME":"EARTH","ELEMENT_SET_NO":"999","MEAN_ANOMALY":"292.1383","REV_AT_EPOCH":"5160","TIME_SYSTEM":"UTC","SEMIMAJOR_AXIS":"6925.343","ECCENTRICITY":"0.00014620","EPOCH":"2022-04-22T12:33:49.199040","RCS_SIZE":"LARGE","INCLINATION":"53.0554","TLE_LINE1":"1 48564U 21041M   22112.52348610  .00003451  00000-0  25047-3 0  9996","PERIOD":"95.592","MEAN_MOTION":"15.06401844","APOAPSIS":"548.220","OBJECT_NAME":"STARLINK-2190","MEAN_ELEMENT_THEORY":"SGP4","RA_OF_ASC_NODE":"13.5369","OBJECT_ID":"2021-041M","REF_FRAME":"TEME","TLE_LINE2":"2 48564  53.0554  13.5369 0001462  67.9761 292.1383 15.06401844 51600","GP_ID":"201823910","NORAD_CAT_ID":"48564","FILE":"3411458","CLASSIFICATION_TYPE":"U","BSTAR":"0.00025047000000","MEAN_MOTION_DOT":"0.00003451","PERIAPSIS":"546.195"},{"PERIAPSIS":"546.141","MEAN_MOTION_DOT":"0.00007429","BSTAR":"0.00051688000000","CLASSIFICATION_TYPE":"U","FILE":"3411458","GP_ID":"201824162","TLE_LINE2":"2 48565  53.0546  13.8470 0001474  91.4210 268.6947 15.06416887 51597","NORAD_CAT_ID":"48565","REF_FRAME":"TEME","OBJECT_ID":"2021-041N","RA_OF_ASC_NODE":"13.8470","MEAN_ELEMENT_THEORY":"SGP4","OBJECT_NAME":"STARLINK-2191","MEAN_MOTION":"15.06416887","APOAPSIS":"548.183","PERIOD":"95.591","TLE_LINE1":"1 48565U 21041N   22112.45345035  .00007429  00000-0  51688-3 0  9996","INCLINATION":"53.0546","RCS_SIZE":"LARGE","EPOCH":"2022-04-22T10:52:58.110240","ECCENTRICITY":"0.00014740","TIME_SYSTEM":"UTC","SEMIMAJOR_AXIS":"6925.297","REV_AT_EPOCH":"5159","MEAN_ANOMALY":"268.6947","ELEMENT_SET_NO":"999","CENTER_NAME":"EARTH","DECAY_DATE":null,"ARG_OF_PERICENTER":"91.4210","EPHEMERIS_TYPE":"0","SITE":"AFETR","OBJECT_TYPE":"PAYLOAD","MEAN_MOTION_DDOT":"0.0000000000000","COUNTRY_CODE":"US","LAUNCH_DATE":"2021-05-15"},{"TLE_LINE2":"2 48566  53.0552  23.7347 0001418  71.7499 288.3644 15.06407192 51453","GP_ID":"201824412","NORAD_CAT_ID":"48566","FILE":"3411458","REF_FRAME":"TEME","CLASSIFICATION_TYPE":"U","BSTAR":"0.00021839000000","PERIAPSIS":"546.210","MEAN_MOTION_DOT":"0.00002974","INCLINATION":"53.0552","RCS_SIZE":"MEDIUM","PERIOD":"95.592","TLE_LINE1":"1 48566U 21041P   22112.47738315  .00002974  00000-0  21839-3 0  9991","MEAN_ELEMENT_THEORY":"SGP4","RA_OF_ASC_NODE":"23.7347","MEAN_MOTION":"15.06407192","APOAPSIS":"548.174","OBJECT_NAME":"STARLINK-2214","OBJECT_ID":"2021-041P","ELEMENT_SET_NO":"999","DECAY_DATE":null,"CENTER_NAME":"EARTH","TIME_SYSTEM":"UTC","SEMIMAJOR_AXIS":"6925.327","MEAN_ANOMALY":"288.3644","REV_AT_EPOCH":"5145","ECCENTRICITY":"0.00014180","EPOCH":"2022-04-22T11:27:25.904160","LAUNCH_DATE":"2021-05-15","COUNTRY_CODE":"US","MEAN_MOTION_DDOT":"0.0000000000000","SITE":"AFETR","EPHEMERIS_TYPE":"0","OBJECT_TYPE":"PAYLOAD","ARG_OF_PERICENTER":"71.7499"},{"INCLINATION":"53.0560","RCS_SIZE":"LARGE","TLE_LINE1":"1 48567U 21041Q   22112.55573530  .00002668  00000-0  19790-3 0  9990","PERIOD":"95.592","MEAN_MOTION":"15.06407074","APOAPSIS":"548.244","OBJECT_NAME":"STARLINK-2215","MEAN_ELEMENT_THEORY":"SGP4","RA_OF_ASC_NODE":"23.3799","OBJECT_ID":"2021-041Q","REF_FRAME":"TEME","GP_ID":"201823161","TLE_LINE2":"2 48567  53.0560  23.3799 0001519  69.2620 290.8532 15.06407074 51464","NORAD_CAT_ID":"48567","FILE":"3411458","CLASSIFICATION_TYPE":"U","BSTAR":"0.00019790000000","MEAN_MOTION_DOT":"0.00002668","PERIAPSIS":"546.140","LAUNCH_DATE":"2021-05-15","MEAN_MOTION_DDOT":"0.0000000000000","COUNTRY_CODE":"US","SITE":"AFETR","OBJECT_TYPE":"PAYLOAD","EPHEMERIS_TYPE":"0","ARG_OF_PERICENTER":"69.2620","DECAY_DATE":null,"CENTER_NAME":"EARTH","ELEMENT_SET_NO":"999","MEAN_ANOMALY":"290.8532","REV_AT_EPOCH":"5146","SEMIMAJOR_AXIS":"6925.327","TIME_SYSTEM":"UTC","ECCENTRICITY":"0.00015190","EPOCH":"2022-04-22T13:20:15.529920"},{"ELEMENT_SET_NO":"999","DECAY_DATE":null,"CENTER_NAME":"EARTH","TIME_SYSTEM":"UTC","SEMIMAJOR_AXIS":"6925.314","MEAN_ANOMALY":"287.7886","REV_AT_EPOCH":"5198","ECCENTRICITY":"0.00013820","EPOCH":"2022-04-22T10:26:26.012256","LAUNCH_DATE":"2021-05-15","COUNTRY_CODE":"US","MEAN_MOTION_DDOT":"0.0000000000000","SITE":"AFETR","OBJECT_TYPE":"PAYLOAD","EPHEMERIS_TYPE":"0","ARG_OF_PERICENTER":"72.3254","NORAD_CAT_ID":"48568","TLE_LINE2":"2 48568  53.0567  13.9275 0001382  72.3254 287.7886 15.06411175 51983","GP_ID":"201832322","FILE":"3411671","REF_FRAME":"TEME","CLASSIFICATION_TYPE":"U","BSTAR":"0.00040037000000","PERIAPSIS":"546.222","MEAN_MOTION_DOT":"0.00005689","INCLINATION":"53.0567","RCS_SIZE":"LARGE","PERIOD":"95.591","TLE_LINE1":"1 48568U 21041R   22112.43502329  .00005689  00000-0  40037-3 0  9990","MEAN_ELEMENT_THEORY":"SGP4","RA_OF_ASC_NODE":"13.9275","MEAN_MOTION":"15.06411175","APOAPSIS":"548.136","OBJECT_NAME":"STARLINK-2217","OBJECT_ID":"2021-041R"},{"PERIOD":"95.592","TLE_LINE1":"1 48569U 21041S   22112.52717469  .00001285  00000-0  10517-3 0  9992","INCLINATION":"53.0542","RCS_SIZE":"LARGE","OBJECT_ID":"2021-041S","RA_OF_ASC_NODE":"13.5231","MEAN_ELEMENT_THEORY":"SGP4","OBJECT_NAME":"STARLINK-2219","MEAN_MOTION":"15.06397255","APOAPSIS":"548.235","CLASSIFICATION_TYPE":"U","FILE":"3411458","NORAD_CAT_ID":"48569","TLE_LINE2":"2 48569  53.0542  13.5231 0001463  73.6034 286.5116 15.06397255 51609","GP_ID":"201824662","REF_FRAME":"TEME","PERIAPSIS":"546.209","MEAN_MOTION_DOT":"0.00001285","BSTAR":"0.00010517000000","MEAN_MOTION_DDOT":"0.0000000000000","COUNTRY_CODE":"US","LAUNCH_DATE":"2021-05-15","ARG_OF_PERICENTER":"73.6034","OBJECT_TYPE":"PAYLOAD","SITE":"AFETR","EPHEMERIS_TYPE":"0","SEMIMAJOR_AXIS":"6925.357","TIME_SYSTEM":"UTC","REV_AT_EPOCH":"5160","MEAN_ANOMALY":"286.5116","ELEMENT_SET_NO":"999","CENTER_NAME":"EARTH","DECAY_DATE":null,"EPOCH":"2022-04-22T12:39:07.893216","ECCENTRICITY":"0.00014630"}];
